{
    "links": {
        "self": "http://www.neowsapp.com/rest/v1/neo/3766575?api_key=iIulBulltgU6a56xZRHN4H3l9WmuAYTsLGpBGhQ2"
    },
    "id": "3766575",
    "neo_reference_id": "3766575",
    "name": "(2017 BK)",
    "designation": "2017 BK",
    "nasa_jpl_url": "http://ssd.jpl.nasa.gov/sbdb.cgi?sstr=3766575",
    "absolute_magnitude_h": 24.0,
    "estimated_diameter": {
        "kilometers": {
            "estimated_diameter_min": 0.0421264611,
            "estimated_diameter_max": 0.0941976306
        },
        "meters": {
            "estimated_diameter_min": 42.1264610556,
            "estimated_diameter_max": 94.1976305719
        },
        "miles": {
            "estimated_diameter_min": 0.0261761612,
            "estimated_diameter_max": 0.0585316759
        },
        "feet": {
            "estimated_diameter_min": 138.2101784897,
            "estimated_diameter_max": 309.0473542854
        }
    },
    "is_potentially_hazardous_asteroid": false,
    "close_approach_data": [
        {
            "close_approach_date": "2017-01-22",
            "close_approach_date_full": "2017-Jan-22 09:29",
            "epoch_date_close_approach": 1485077340000,
            "relative_velocity": {
                "kilometers_per_second": "8.9150277163",
                "kilometers_per_hour": "32094.0997787187",
                "miles_per_hour": "19942.0254986155"
            },
            "miss_distance": {
                "astronomical": "0.0391298115",
                "lunar": "15.2214966735",
                "kilometers": "5853736.453901505",
                "miles": "3637343.166610569"
            },
            "orbiting_body": "Earth"
        },
        {
            "close_approach_date": "2127-12-31",
            "close_approach_date_full": "2127-Dec-31 06:58",
            "epoch_date_close_approach": 4985909880000,
            "relative_velocity": {
                "kilometers_per_second": "17.5360391192",
                "kilometers_per_hour": "63129.7408290602",
                "miles_per_hour": "39226.3659057013"
            },
            "miss_distance": {
                "astronomical": "0.3088279134",
                "lunar": "120.1340583126",
                "kilometers": "46199998.041184458",
                "miles": "28707347.6053952004"
            },
            "orbiting_body": "Earth"
        }
    ],
    "orbital_data": {
        "orbit_id": "9",
        "orbit_determination_date": "2019-02-12 06:53:51",
        "first_observation_date": "2017-01-17",
        "last_observation_date": "2017-01-31",
        "data_arc_in_days": 14,
        "observations_used": 104,
        "orbit_uncertainty": "7",
        "minimum_orbit_intersection": ".0359866",
        "jupiter_tisserand_invariant": "3.772",
        "epoch_osculation": "2459000.5",
        "eccentricity": ".4900158076675446",
        "semi_major_axis": "1.911197569337229",
        "inclination": "6.640671136753745",
        "ascending_node_longitude": "110.8942595176656",
        "orbital_period": "965.0655291464177",
        "perihelion_distance": ".9746805487861987",
        "perihelion_argument": "39.63597086307846",
        "aphelion_distance": "2.847714589888259",
        "perihelion_time": "2458762.704836207651",
        "mean_anomaly": "88.70512558972322",
        "mean_motion": ".3730316637859951",
        "equinox": "J2000",
        "orbit_class": {
            "orbit_class_type": "APO",
            "orbit_class_description": "Near-Earth asteroid orbits which cross the Earth’s orbit similar to that of 1862 Apollo",
            "orbit_class_range": "a (semi-major axis) > 1.0 AU; q (perihelion) < 1.017 AU"
        }
    },
    "is_sentry_object": false
}